STARLINK-31338          
1 59156U 24044E   26068.36629645 -.00000439  00000+0 -64557-5 0  9992
2 59156  43.0020 112.5114 0000864 257.0767 102.9988 15.27570232113471
COSMOS 2576             
1 59773U 24092A   26068.82603826  .00015211  00000+0  56283-3 0  9991
2 59773  97.4253 186.0053 0005946 159.7731 200.3745 15.27760963101271
